H1 CPF  1  HTS 2022 10 23 12  7961 larets           NONE
H2  0304206 5557    27944 2022 10 23  0  0  0 2022 10 28  0  0  0   180 1 1  0 0 0
H5  0.0560 
H9 
10 0 59876  34920.00000  0   -2281528.932   -6348741.900   -2108238.607
10 0 59876  35100.00000  0   -2649062.796   -6503762.547    -802183.337
10 0 59876  35280.00000  0   -2921198.057   -6414068.229     533229.237
10 0 59876  35460.00000  0   -3081689.993   -6085613.487    1849121.696
10 0 59876  35640.00000  0   -3118658.643   -5533465.301    3097342.699
10 0 59876  35820.00000  0   -3025247.633   -4781106.841    4232264.796
10 0 59876  36000.00000  0   -2800065.351   -3859407.181    5212468.343
10 0 59876  36180.00000  0   -2447391.866   -2805313.152    6002245.429
10 0 59876  36360.00000  0   -1977141.327   -1660331.796    6572869.772
10 0 59876  36540.00000  0   -1404585.520    -468878.011    6903600.447
10 0 59876  36720.00000  0    -749852.921     723452.573    6982393.174
10 0 59876  36900.00000  0     -37225.965    1871614.357    6806311.100
10 0 59876  37080.00000  0     705749.486    2932799.379    6381637.238
10 0 59876  37260.00000  0    1449315.761    3868027.771    5723676.907
10 0 59876  37440.00000  0    2162680.906    4643592.740    4856254.671
10 0 59876  37620.00000  0    2815286.610    5232312.975    3810906.204
10 0 59876  37800.00000  0    3378117.426    5614537.507    2625777.257
10 0 59876  37980.00000  0    3824997.754    5778865.370    1344253.487
10 0 59876  38160.00000  0    4133806.549    5722524.924      13353.729
10 0 59876  38340.00000  0    4287543.221    5451388.506   -1318038.212
10 0 59876  38520.00000  0    4275190.017    4979616.692   -2601026.345
10 0 59876  38700.00000  0    4092321.429    4328953.903   -3788555.654
10 0 59876  38880.00000  0    3741425.492    3527711.579   -4837179.918
10 0 59876  39060.00000  0    3231928.184    2609499.676   -5708662.291
10 0 59876  39240.00000  0    2579924.575    1611776.452   -6371350.398
10 0 59876  39420.00000  0    1807635.062     574289.775   -6801278.754
10 0 59876  39600.00000  0     942619.799    -462515.898   -6982974.310
10 0 59876  39780.00000  0      16782.306   -1459067.913   -6909963.794
10 0 59876  39960.00000  0    -934805.473   -2378156.968   -6584970.938
10 0 59876  40140.00000  0   -1875216.386   -3186306.622   -6019815.037
10 0 59876  40320.00000  0   -2767083.286   -3854985.988   -5235007.382
10 0 59876  40500.00000  0   -3574072.750   -4361627.244   -4259054.935
10 0 59876  40680.00000  0   -4262369.991   -4690413.353   -3127472.522
10 0 59876  40860.00000  0   -4802109.091   -4832797.618   -1881524.733
10 0 59876  41040.00000  0   -5168684.932   -4787729.223    -566732.856
10 0 59876  41220.00000  0   -5343878.967   -4561568.875     768801.777
10 0 59876  41400.00000  0   -5316737.861   -4167694.479    2076192.934
10 0 59876  41580.00000  0   -5084152.293   -3625809.793    3307603.740
10 0 59876  41760.00000  0   -4651106.586   -2960994.847    4418030.475
10 0 59876  41940.00000  0   -4030590.470   -2202551.771    5366960.987
10 0 59876  42120.00000  0   -3243182.881   -1382708.525    6119837.080
10 0 59876  42300.00000  0   -2316338.955    -535248.699    6649280.230
10 0 59876  42480.00000  0   -1283404.616     305880.139    6936046.874
10 0 59876  42660.00000  0    -182404.355    1107914.924    6969683.589
10 0 59876  42840.00000  0     945349.113    1840538.042    6748886.904
10 0 59876  43020.00000  0    2056788.531    2477016.639    6281559.417
10 0 59876  43200.00000  0    3108722.090    2995179.343    5584558.177
10 0 59876  43380.00000  0    4059511.816    3378203.530    4683139.596
10 0 59876  43560.00000  0    4870740.384    3615184.689    3610097.453
10 0 59876  43740.00000  0    5508804.801    3701463.870    2404614.553
10 0 59876  43920.00000  0    5946361.899    3638690.582    1110842.344
10 0 59876  44100.00000  0    6163544.250    3434613.107    -223735.534
10 0 59876  44280.00000  0    6148881.075    3102601.359   -1550094.612
10 0 59876  44460.00000  0    5899868.081    2660923.617   -2819529.831
10 0 59876  44640.00000  0    5423156.934    2131821.199   -3985498.520
10 0 59876  44820.00000  0    4734359.033    1540427.344   -5005365.137
10 0 59876  45000.00000  0    3857472.942     913588.741   -5841967.666
10 0 59876  45180.00000  0    2823979.632     278657.770   -6464942.746
10 0 59876  45360.00000  0    1671654.670    -337687.753   -6851777.504
10 0 59876  45540.00000  0     443155.149    -910548.663   -6988564.484
10 0 59876  45720.00000  0    -815567.673   -1417792.933   -6870453.904
10 0 59876  45900.00000  0   -2056974.834   -1840893.923   -6501798.302
10 0 59876  46080.00000  0   -3233714.433   -2165597.648   -5895995.585
10 0 59876  46260.00000  0   -4300409.882   -2382399.051   -5075032.912
10 0 59876  46440.00000  0   -5215414.355   -2486816.508   -4068739.047
10 0 59876  46620.00000  0   -5942464.498   -2479450.789   -2913746.941
10 0 59876  46800.00000  0   -6452162.605   -2365823.454   -1652191.200
10 0 59876  46980.00000  0   -6723215.110   -2155998.349    -330177.473
10 0 59876  47160.00000  0   -6743361.591   -1864001.723    1003921.120
10 0 59876  47340.00000  0   -6509940.840   -1507067.179    2301271.526
10 0 59876  47520.00000  0   -6030057.665   -1104745.276    3514411.110
10 0 59876  47700.00000  0   -5320344.643    -677925.035    4599016.068
10 0 59876  47880.00000  0   -4406331.955    -247818.533    5515530.362
10 0 59876  48060.00000  0   -3321472.729     165037.209    6230587.508
10 0 59876  48240.00000  0   -2105872.915     541716.054    6718190.235
10 0 59876  48420.00000  0    -804779.069     865733.393    6960611.880
10 0 59876  48600.00000  0     533111.333    1123742.491    6949002.221
10 0 59876  48780.00000  0    1857457.351    1306073.311    6683692.015
10 0 59876  48960.00000  0    3118148.961    1407096.487    6174195.248
10 0 59876  49140.00000  0    4267194.955    1425399.202    5438905.726
10 0 59876  49320.00000  0    5260563.376    1363766.924    4504484.889
10 0 59876  49500.00000  0    6059911.134    1228972.165    3404952.498
10 0 59876  49680.00000  0    6634133.261    1031375.605    2180482.137
10 0 59876  49860.00000  0    6960646.969     784352.259     875940.436
10 0 59876  50040.00000  0    7026348.106     503570.773    -460780.904
10 0 59876  50220.00000  0    6828179.560     206159.614   -1780574.249
10 0 59876  50400.00000  0    6373272.324     -90195.797   -3034982.619
10 0 59876  50580.00000  0    5678655.342    -368176.573   -4178032.161
10 0 59876  50760.00000  0    4770552.853    -611722.860   -5167949.734
10 0 59876  50940.00000  0    3683313.110    -806846.751   -5968687.602
10 0 59876  51120.00000  0    2458036.352    -942330.308   -6551204.782
10 0 59876  51300.00000  0    1140966.202   -1010277.218   -6894467.895
10 0 59876  51480.00000  0    -218279.831   -1006496.575   -6986152.001
10 0 59876  51660.00000  0   -1568577.405    -930707.832   -6823038.044
10 0 59876  51840.00000  0   -2859199.683    -786560.472   -6411104.924
10 0 59876  52020.00000  0   -4041700.210    -581468.588   -5765315.865
10 0 59876  52200.00000  0   -5071720.330    -326267.509   -4909111.762
10 0 59876  52380.00000  0   -5910669.543     -34703.227   -3873609.519
10 0 59876  52560.00000  0   -6527213.757     277226.883   -2696518.694
10 0 59876  52740.00000  0   -6898506.492     592058.244   -1420796.556
10 0 59876  52920.00000  0   -7011099.316     891732.954     -93082.172
10 0 59876  53100.00000  0   -6861474.185    1158518.435    1238036.754
10 0 59876  53280.00000  0   -6456164.713    1375924.333    2523839.273
10 0 59876  53460.00000  0   -5811465.791    1529569.708    3717295.028
10 0 59876  53640.00000  0   -4952738.799    1607953.032    4774813.938
10 0 59876  53820.00000  0   -3913357.512    1603086.398    5657840.022
10 0 59876  54000.00000  0   -2733360.309    1510965.670    6334233.976
10 0 59876  54180.00000  0   -1457870.017    1331858.046    6779407.957
10 0 59876  54360.00000  0    -135345.941    1070394.597    6977174.500
10 0 59876  54540.00000  0    1184252.497     735465.192    6920295.770
10 0 59876  54720.00000  0    2451333.137     339920.716    6610735.895
10 0 59876  54900.00000  0    3618518.068     -99909.373    6059611.486
10 0 59876  55080.00000  0    4642417.429    -564872.414    5286835.171
10 0 59876  55260.00000  0    5485269.039   -1033800.878    4320449.748
10 0 59876  55440.00000  0    6116384.050   -1484444.988    3195662.205
10 0 59876  55620.00000  0    6513336.605   -1894492.877    1953592.746
10 0 59876  55800.00000  0    6662833.938   -2242630.606     639773.167
10 0 59876  55980.00000  0    6561217.050   -2509590.358    -697551.294
10 0 59876  56160.00000  0    6214556.466   -2679129.198   -2009248.870
10 0 59876  56340.00000  0    5638331.210   -2738883.801   -3247169.490
10 0 59876  56520.00000  0    4856711.078   -2681053.719   -4365962.530
10 0 59876  56700.00000  0    3901489.689   -2502881.310   -5324763.914
10 0 59876  56880.00000  0    2810724.606   -2206906.336   -6088683.408
10 0 59876  57060.00000  0    1627165.488   -1800986.555   -6630034.725
10 0 59876  57240.00000  0     396546.337   -1298089.179   -6929287.873
10 0 59876  57420.00000  0    -834193.606    -715863.422   -6975716.771
10 0 59876  57600.00000  0   -2018688.736     -76015.741   -6767740.051
10 0 59876  57780.00000  0   -3112873.305     596495.044   -6312957.182
10 0 59876  57960.00000  0   -4076600.777    1274417.230   -5627882.847
10 0 59876  58140.00000  0   -4875115.669    1929291.092   -4737388.454
10 0 59876  58320.00000  0   -5480331.374    2532627.772   -3673849.639
10 0 59876  58500.00000  0   -5871858.255    3057135.466   -2476010.606
10 0 59876  58680.00000  0   -6037738.252    3477937.813   -1187598.127
10 0 59876  58860.00000  0   -5974846.045    3773730.137     144276.498
10 0 59876  59040.00000  0   -5688927.726    3927811.129    1470868.016
10 0 59876  59220.00000  0   -5194266.303    3928931.810    2743625.124
99
